start=new Date('2022-04-16T00:00:00.000Z').valueOf();
sats=[{"LAUNCH_DATE":"2021-03-04","EPHEMERIS_TYPE":"0","PERIAPSIS":"545.931","REV_AT_EPOCH":"6292","COUNTRY_CODE":"US","MEAN_ELEMENT_THEORY":"SGP4","ELEMENT_SET_NO":"999","CENTER_NAME":"EARTH","OBJECT_ID":"2021-017T","MEAN_MOTION":"15.06414642","NORAD_CAT_ID":"47739","OBJECT_TYPE":"PAYLOAD","GP_ID":"201340869","TLE_LINE1":"1 47739U 21017T   22105.56858672  .00003665  00000-0  26470-3 0  9990","MEAN_ANOMALY":"300.9724","BSTAR":"0.00026470000000","TLE_LINE2":"2 47739  53.0533 139.7524 0001787  59.1441 300.9724 15.06414642 62926","FILE":"3403567","RA_OF_ASC_NODE":"139.7524","MEAN_MOTION_DOT":"0.00003665","MEAN_MOTION_DDOT":"0.0000000000000","REF_FRAME":"TEME","TIME_SYSTEM":"UTC","DECAY_DATE":null,"RCS_SIZE":"LARGE","SEMIMAJOR_AXIS":"6925.304","OBJECT_NAME":"STARLINK-2150","PERIOD":"95.591","SITE":"AFETR","ECCENTRICITY":"0.00017870","ARG_OF_PERICENTER":"59.1441","EPOCH":"2022-04-15T13:38:45.892608","INCLINATION":"53.0533","CLASSIFICATION_TYPE":"U","APOAPSIS":"548.406"},{"CLASSIFICATION_TYPE":"U","APOAPSIS":"548.446","INCLINATION":"53.0525","EPOCH":"2022-04-15T17:58:11.460000","ARG_OF_PERICENTER":"57.1968","ECCENTRICITY":"0.00017950","SITE":"AFETR","PERIOD":"95.592","OBJECT_NAME":"STARLINK-2152","SEMIMAJOR_AXIS":"6925.338","DECAY_DATE":null,"RCS_SIZE":"LARGE","TIME_SYSTEM":"UTC","REF_FRAME":"TEME","MEAN_MOTION_DOT":"0.00001282","MEAN_MOTION_DDOT":"0.0000000000000","RA_OF_ASC_NODE":"123.9410","FILE":"3403567","TLE_LINE2":"2 47740  53.0525 123.9410 0001795  57.1968 302.9193 15.06403482 63157","MEAN_ANOMALY":"302.9193","BSTAR":"0.00010493000000","TLE_LINE1":"1 47740U 21017U   22105.74874375  .00001282  00000-0  10493-3 0  9991","OBJECT_TYPE":"PAYLOAD","GP_ID":"201341119","MEAN_MOTION":"15.06403482","NORAD_CAT_ID":"47740","OBJECT_ID":"2021-017U","CENTER_NAME":"EARTH","ELEMENT_SET_NO":"999","COUNTRY_CODE":"US","MEAN_ELEMENT_THEORY":"SGP4","REV_AT_EPOCH":"6315","PERIAPSIS":"545.960","EPHEMERIS_TYPE":"0","LAUNCH_DATE":"2021-03-04"},{"ARG_OF_PERICENTER":"57.9427","ECCENTRICITY":"0.00018620","EPOCH":"2022-04-15T18:19:24.717792","INCLINATION":"53.0525","APOAPSIS":"548.434","CLASSIFICATION_TYPE":"U","MEAN_MOTION_DDOT":"0.0000000000000","MEAN_MOTION_DOT":"0.00006246","REF_FRAME":"TEME","TIME_SYSTEM":"UTC","DECAY_DATE":null,"RCS_SIZE":"LARGE","SEMIMAJOR_AXIS":"6925.279","OBJECT_NAME":"STARLINK-2154","PERIOD":"95.591","SITE":"AFETR","MEAN_ANOMALY":"302.1743","BSTAR":"0.00043761000000","TLE_LINE2":"2 47741  53.0525 123.8755 0001862  57.9427 302.1743 15.06422688 63110","FILE":"3403567","RA_OF_ASC_NODE":"123.8755","LAUNCH_DATE":"2021-03-04","EPHEMERIS_TYPE":"0","PERIAPSIS":"545.855","REV_AT_EPOCH":"6311","MEAN_ELEMENT_THEORY":"SGP4","COUNTRY_CODE":"US","ELEMENT_SET_NO":"999","CENTER_NAME":"EARTH","OBJECT_ID":"2021-017V","MEAN_MOTION":"15.06422688","NORAD_CAT_ID":"47741","OBJECT_TYPE":"PAYLOAD","GP_ID":"201341871","TLE_LINE1":"1 47741U 21017V   22105.76348053  .00006246  00000-0  43761-3 0  9992"},{"RA_OF_ASC_NODE":"114.1239","TLE_LINE2":"2 47742  53.0518 114.1239 0001765  57.8992 302.2168 15.06418748 63294","FILE":"3403567","MEAN_ANOMALY":"302.2168","BSTAR":"0.00052550000000","TLE_LINE1":"1 47742U 21017W   22105.70912589  .00007558  00000-0  52550-3 0  9991","OBJECT_ID":"2021-017W","ELEMENT_SET_NO":"999","CENTER_NAME":"EARTH","GP_ID":"201342621","OBJECT_TYPE":"PAYLOAD","MEAN_MOTION":"15.06418748","NORAD_CAT_ID":"47742","MEAN_ELEMENT_THEORY":"SGP4","COUNTRY_CODE":"US","REV_AT_EPOCH":"6329","LAUNCH_DATE":"2021-03-04","EPHEMERIS_TYPE":"0","PERIAPSIS":"545.934","CLASSIFICATION_TYPE":"U","APOAPSIS":"548.378","INCLINATION":"53.0518","EPOCH":"2022-04-15T17:01:08.476896","ECCENTRICITY":"0.00017650","ARG_OF_PERICENTER":"57.8992","PERIOD":"95.591","OBJECT_NAME":"STARLINK-2156","SITE":"AFETR","SEMIMAJOR_AXIS":"6925.291","TIME_SYSTEM":"UTC","REF_FRAME":"TEME","RCS_SIZE":"LARGE","DECAY_DATE":null,"MEAN_MOTION_DDOT":"0.0000000000000","MEAN_MOTION_DOT":"0.00007558"},{"SEMIMAJOR_AXIS":"6925.338","SITE":"AFETR","OBJECT_NAME":"STARLINK-2157","PERIOD":"95.592","MEAN_MOTION_DOT":"0.00000992","MEAN_MOTION_DDOT":"0.0000000000000","RCS_SIZE":"LARGE","DECAY_DATE":null,"REF_FRAME":"TEME","TIME_SYSTEM":"UTC","INCLINATION":"53.0546","APOAPSIS":"548.495","CLASSIFICATION_TYPE":"U","ARG_OF_PERICENTER":"55.5837","ECCENTRICITY":"0.00018660","EPOCH":"2022-04-15T17:38:16.778688","NORAD_CAT_ID":"47743","MEAN_MOTION":"15.06403506","OBJECT_TYPE":"PAYLOAD","GP_ID":"201341369","CENTER_NAME":"EARTH","ELEMENT_SET_NO":"999","OBJECT_ID":"2021-017X","TLE_LINE1":"1 47743U 21017X   22105.73491642  .00000992  00000-0  85478-4 0  9998","PERIAPSIS":"545.911","LAUNCH_DATE":"2021-03-04","EPHEMERIS_TYPE":"0","REV_AT_EPOCH":"6327","COUNTRY_CODE":"US","MEAN_ELEMENT_THEORY":"SGP4","RA_OF_ASC_NODE":"114.0054","BSTAR":"0.00008547800000","MEAN_ANOMALY":"304.5328","FILE":"3403567","TLE_LINE2":"2 47743  53.0546 114.0054 0001866  55.5837 304.5328 15.06403506 63272"},{"GP_ID":"201341619","OBJECT_TYPE":"PAYLOAD","NORAD_CAT_ID":"47744","MEAN_MOTION":"15.06396757","OBJECT_ID":"2021-017Y","CENTER_NAME":"EARTH","ELEMENT_SET_NO":"999","TLE_LINE1":"1 47744U 21017Y   22105.71279330 -.00001401  00000-0 -75132-4 0  9999","PERIAPSIS":"545.886","EPHEMERIS_TYPE":"0","LAUNCH_DATE":"2021-03-04","COUNTRY_CODE":"US","MEAN_ELEMENT_THEORY":"SGP4","REV_AT_EPOCH":"6329","RA_OF_ASC_NODE":"114.1129","BSTAR":"-0.00007513200000","MEAN_ANOMALY":"306.3729","FILE":"3403567","TLE_LINE2":"2 47744  53.0534 114.1129 0001932  53.7438 306.3729 15.06396757 63291","SEMIMAJOR_AXIS":"6925.358","SITE":"AFETR","PERIOD":"95.592","OBJECT_NAME":"STARLINK-2158","MEAN_MOTION_DOT":"-0.00001401","MEAN_MOTION_DDOT":"0.0000000000000","DECAY_DATE":null,"RCS_SIZE":"LARGE","TIME_SYSTEM":"UTC","REF_FRAME":"TEME","INCLINATION":"53.0534","APOAPSIS":"548.561","CLASSIFICATION_TYPE":"U","ARG_OF_PERICENTER":"53.7438","ECCENTRICITY":"0.00019320","EPOCH":"2022-04-15T17:06:25.341120"},{"FILE":"3403567","TLE_LINE2":"2 47745  53.0521 123.3785 0001700  61.9398 298.1763 15.06394239 63128","MEAN_ANOMALY":"298.1763","BSTAR":"0.00002045000000","RA_OF_ASC_NODE":"123.3785","MEAN_ELEMENT_THEORY":"SGP4","COUNTRY_CODE":"US","REV_AT_EPOCH":"6312","PERIAPSIS":"546.054","LAUNCH_DATE":"2021-03-04","EPHEMERIS_TYPE":"0","TLE_LINE1":"1 47745U 21017Z   22105.87405783  .00000023  00000-0  20450-4 0  9990","OBJECT_TYPE":"PAYLOAD","GP_ID":"201342371","MEAN_MOTION":"15.06394239","NORAD_CAT_ID":"47745","OBJECT_ID":"2021-017Z","CENTER_NAME":"EARTH","ELEMENT_SET_NO":"999","EPOCH":"2022-04-15T20:58:38.596512","ARG_OF_PERICENTER":"61.9398","ECCENTRICITY":"0.00017000","CLASSIFICATION_TYPE":"U","APOAPSIS":"548.409","INCLINATION":"53.0521","DECAY_DATE":null,"RCS_SIZE":"LARGE","TIME_SYSTEM":"UTC","REF_FRAME":"TEME","MEAN_MOTION_DOT":"0.00000023","MEAN_MOTION_DDOT":"0.0000000000000","SITE":"AFETR","PERIOD":"95.593","OBJECT_NAME":"STARLINK-2159","SEMIMAJOR_AXIS":"6925.366"},{"CLASSIFICATION_TYPE":"U","APOAPSIS":"548.408","INCLINATION":"53.0550","EPOCH":"2022-04-15T11:14:46.914720","ECCENTRICITY":"0.00017330","ARG_OF_PERICENTER":"52.7465","OBJECT_NAME":"STARLINK-2160","PERIOD":"95.592","SITE":"AFETR","SEMIMAJOR_AXIS":"6925.343","REF_FRAME":"TEME","TIME_SYSTEM":"UTC","RCS_SIZE":"LARGE","DECAY_DATE":null,"MEAN_MOTION_DOT":"-0.00000514","MEAN_MOTION_DDOT":"0.0000000000000","RA_OF_ASC_NODE":"125.1919","TLE_LINE2":"2 47746  53.0550 125.1919 0001733  52.7465 307.3682 15.06401754 63055","FILE":"3403095","MEAN_ANOMALY":"307.3682","BSTAR":"-0.00001562700000","TLE_LINE1":"1 47746U 21017AA  22105.46859855 -.00000514  00000-0 -15627-4 0  9996","CENTER_NAME":"EARTH","ELEMENT_SET_NO":"999","OBJECT_ID":"2021-017AA","MEAN_MOTION":"15.06401754","NORAD_CAT_ID":"47746","OBJECT_TYPE":"PAYLOAD","GP_ID":"201306709","REV_AT_EPOCH":"6305","MEAN_ELEMENT_THEORY":"SGP4","COUNTRY_CODE":"US","EPHEMERIS_TYPE":"0","LAUNCH_DATE":"2021-03-04","PERIAPSIS":"546.008"},{"SITE":"AFETR","OBJECT_NAME":"STARLINK-2161","PERIOD":"95.592","SEMIMAJOR_AXIS":"6925.325","DECAY_DATE":null,"RCS_SIZE":"LARGE","REF_FRAME":"TEME","TIME_SYSTEM":"UTC","MEAN_MOTION_DDOT":"0.0000000000000","MEAN_MOTION_DOT":"0.00003428","CLASSIFICATION_TYPE":"U","APOAPSIS":"548.451","INCLINATION":"53.0519","EPOCH":"2022-04-15T17:32:58.343712","ARG_OF_PERICENTER":"49.5952","ECCENTRICITY":"0.00018200","TLE_LINE1":"1 47747U 21017AB  22105.73123083  .00003428  00000-0  24885-3 0  9994","MEAN_MOTION":"15.06407571","NORAD_CAT_ID":"47747","GP_ID":"201340870","OBJECT_TYPE":"PAYLOAD","ELEMENT_SET_NO":"999","CENTER_NAME":"EARTH","OBJECT_ID":"2021-017AB","REV_AT_EPOCH":"6327","COUNTRY_CODE":"US","MEAN_ELEMENT_THEORY":"SGP4","PERIAPSIS":"545.930","EPHEMERIS_TYPE":"0","LAUNCH_DATE":"2021-03-04","RA_OF_ASC_NODE":"114.0191","FILE":"3403567","TLE_LINE2":"2 47747  53.0519 114.0191 0001820  49.5952 310.5196 15.06407571 63275","MEAN_ANOMALY":"310.5196","BSTAR":"0.00024885000000"},{"GP_ID":"201341120","OBJECT_TYPE":"PAYLOAD","NORAD_CAT_ID":"47748","MEAN_MOTION":"15.06415703","OBJECT_ID":"2021-017AC","ELEMENT_SET_NO":"999","CENTER_NAME":"EARTH","TLE_LINE1":"1 47748U 21017AC  22105.72386115  .00004794  00000-0  34038-3 0  9999","PERIAPSIS":"545.776","EPHEMERIS_TYPE":"0","LAUNCH_DATE":"2021-03-04","COUNTRY_CODE":"US","MEAN_ELEMENT_THEORY":"SGP4","REV_AT_EPOCH":"6324","RA_OF_ASC_NODE":"114.0549","MEAN_ANOMALY":"310.7692","BSTAR":"0.00034038000000","FILE":"3403567","TLE_LINE2":"2 47748  53.0520 114.0549 0002007  49.3471 310.7692 15.06415703 63243","SEMIMAJOR_AXIS":"6925.300","SITE":"AFETR","PERIOD":"95.591","OBJECT_NAME":"STARLINK-2162","MEAN_MOTION_DOT":"0.00004794","MEAN_MOTION_DDOT":"0.0000000000000","DECAY_DATE":null,"RCS_SIZE":"LARGE","TIME_SYSTEM":"UTC","REF_FRAME":"TEME","INCLINATION":"53.0520","CLASSIFICATION_TYPE":"U","APOAPSIS":"548.555","ECCENTRICITY":"0.00020070","ARG_OF_PERICENTER":"49.3471","EPOCH":"2022-04-15T17:22:21.603360"}];
